*******************************************************************************
JPL/HORIZONS                  15502 (1999 NV27)            2013-Sep-09 10:32:03
Rec #: 15502 (+COV)   Soln.date: 2013-Aug-26_20:16:07    # obs: 638 (1982-2013)
 
FK5/J2000.0 helio. ecliptic osc. elements (au, days, deg., period=Julian yrs): 
 
  EPOCH=  2454049.5 ! 2006-Nov-10.00 (CT)          Residual RMS= .48074        
   EC= .01633991080107449  QR= 5.064977857300431   TP= 2453635.491549199       
   OM= 308.7094382505087   W=  181.1147347259685   IN= 16.80468629484689       
   A= 5.149113919448795    MA= 34.92324008109187   ADIST= 5.233249981597159    
   PER= 11.68441           N= .08435392799999999   ANGMOM= .039029205          
   DAN= 5.23323            DDN= 5.06499            L= 129.7765902              
   B= -.3222639            MOID= 4.08002996        TP= 2005-Sep-21.9915491990  
 
Asteroid physical parameters (km, seconds, rotational period in hours):        
   GM= n.a.                RAD= n.a.               ROTPER= n.a.                
   H= 10.1                 G= .150                 B-V= n.a.                   
                           ALBEDO= n.a.            STYP= n.a.                  
 
ASTEROID comments: 
1: soln ref.= JPL#3, OCC=0
2: source=ORB
*******************************************************************************
 

 

*******************************************************************************
Ephemeris / WWW_USER Mon Sep  9 10:32:03 2013 Pasadena, USA      / Horizons    
*******************************************************************************
Target body name: 15502 (1999 NV27)               {source: JPL#3}
Center body name: Earth (399)                     {source: DE-0431LE-0431}
Center-site name: San Pedro Martir
*******************************************************************************
Start time      : A.D. 2013-Jan-01 00:00:00.0000 UT      
Stop  time      : A.D. 2013-Dec-31 00:00:00.0000 UT      
Step-size       : 1440 minutes
*******************************************************************************
Target pole/equ : No model available
Target radii    : (unavailable)                                                
Center geodetic : 244.536700,31.0434585,2.8281109 {E-lon(deg),Lat(deg),Alt(km)}
Center cylindric: 244.536700,5471.93108,3271.4810 {E-lon(deg),Dxy(km),Dz(km)}
Center pole/equ : High-precision EOP model        {East-longitude +}
Center radii    : 6378.1 x 6378.1 x 6356.8 km     {Equator, meridian, pole}    
Target primary  : Sun
Vis. interferer : MOON (R_eq= 1737.400) km        {source: DE-0431LE-0431}
Rel. light bend : Sun, EARTH                      {source: DE-0431LE-0431}
Rel. lght bnd GM: 1.3271E+11, 3.9860E+05 km^3/s^2                              
Small-body perts: Yes                             {source: SB431-BIG16}
Atmos refraction: NO (AIRLESS)
RA format       : DEG
Time format     : BOTH
EOP file        : eop.130906.p131128                                           
EOP coverage    : DATA-BASED 1962-JAN-20 TO 2013-SEP-06. PREDICTS-> 2013-NOV-27
Units conversion: 1 au= 149597870.700 km, c= 299792.458 km/s, 1 day= 86400.0 s 
Table cut-offs 1: Elevation (-90.0deg=NO ),Airmass (>38.000=NO), Daylight (NO )
Table cut-offs 2: Solar Elongation (  0.0,180.0=NO ),Local Hour Angle( 0.0=NO )
*******************************************************************************
Initial FK5/J2000.0 heliocentric ecliptic osculating elements (au, days, deg.):
  EPOCH=  2454049.5 ! 2006-Nov-10.00 (CT)          Residual RMS= .48074        
   EC= .01633991080107449  QR= 5.064977857300431   TP= 2453635.491549199       
   OM= 308.7094382505087   W=  181.1147347259685   IN= 16.80468629484689       
Asteroid physical parameters (km, seconds, rotational period in hours):        
   GM= n.a.                RAD= n.a.               ROTPER= n.a.                
   H= 10.1                 G= .150                 B-V= n.a.                   
                           ALBEDO= n.a.            STYP= n.a.                  
************************************************************************************************************
 Date__(UT)__HR:MN Date_________JDUT     R.A._(J2000.0)_DEC. dRA*cosD d(DEC)/dt            delta      deldot
************************************************************************************************************
$$SOE
 2013-Sep-13 00:00 2456548.500000000 *m   10.08772  24.49434 -16.2058  -0.20297 4.29479390306711 -12.3748271
 2013-Sep-14 00:00 2456549.500000000 *m    9.96581  24.49110 -16.4464  -0.47754 4.28792271728283 -11.9478848
 2013-Sep-15 00:00 2456550.500000000 *m    9.84222  24.48601 -16.6763  -0.75150 4.28130214827717 -11.5164620
 2013-Sep-16 00:00 2456551.500000000 *m    9.71704  24.47908 -16.8955  -1.02469 4.27493468172589 -11.0807240
 2013-Sep-17 00:00 2456552.500000000 *m    9.59035  24.47032 -17.1039  -1.29701 4.26882272248908 -10.6407799
 2013-Sep-18 00:00 2456553.500000000 *     9.46223  24.45973 -17.3016  -1.56835 4.26296862719167 -10.1966840
 2013-Sep-19 00:00 2456554.500000000 *     9.33276  24.44732 -17.4884  -1.83858 4.25737473350787  -9.7484458
 2013-Sep-20 00:00 2456555.500000000 *     9.20203  24.43309 -17.6643  -2.10758 4.25204338048003  -9.2960504
 2013-Sep-21 00:00 2456556.500000000 *     9.07012  24.41706 -17.8289  -2.37521 4.24697691608408  -8.8394813
 2013-Sep-22 00:00 2456557.500000000 *     8.93712  24.39923 -17.9820  -2.64127 4.24217769171205  -8.3787418
 2013-Sep-23 00:00 2456558.500000000 *     8.80311  24.37963 -18.1234  -2.90557 4.23764804660944  -7.9138681
 2013-Sep-24 00:00 2456559.500000000 *     8.66819  24.35825 -18.2528  -3.16787 4.23339028707639  -7.4449341
 2013-Sep-25 00:00 2456560.500000000 *     8.53245  24.33512 -18.3698  -3.42793 4.22940666503855  -6.9720495
 2013-Sep-26 00:00 2456561.500000000 *     8.39598  24.31025 -18.4742  -3.68549 4.22569935910419  -6.4953535
 2013-Sep-27 00:00 2456562.500000000 *     8.25888  24.28366 -18.5658  -3.94030 4.22227045942799  -6.0150082
 2013-Sep-28 00:00 2456563.500000000 *     8.12124  24.25537 -18.6442  -4.19209 4.21912195625964  -5.5311932
 2013-Sep-29 00:00 2456564.500000000 *     7.98317  24.22541 -18.7093  -4.44059 4.21625573115766  -5.0441015
 2013-Sep-30 00:00 2456565.500000000 *     7.84477  24.19379 -18.7609  -4.68552 4.21367354940613  -4.5539394
 2013-Oct-01 00:00 2456566.500000000 *     7.70614  24.16053 -18.7986  -4.92662 4.21137705203328  -4.0609281
 2013-Oct-02 00:00 2456567.500000000 *     7.56738  24.12568 -18.8225  -5.16360 4.20936774591448  -3.5653088
 2013-Oct-03 00:00 2456568.500000000 *     7.42860  24.08925 -18.8322  -5.39617 4.20764699078189  -3.0673481
 2013-Oct-04 00:00 2456569.500000000 *m    7.28991  24.05128 -18.8276  -5.62404 4.20621598266257  -2.5673443
 2013-Oct-05 00:00 2456570.500000000 *m    7.15140  24.01181 -18.8086  -5.84690 4.20507573439519  -2.0656309
 2013-Oct-06 00:00 2456571.500000000 *m    7.01320  23.97085 -18.7751  -6.06447 4.20422705530855  -1.5625760
 2013-Oct-07 00:00 2456572.500000000 *m    6.87540  23.92846 -18.7272  -6.27647 4.20367053344936  -1.0585737
 2013-Oct-08 00:00 2456573.500000000 *m    6.73811  23.88467 -18.6648  -6.48263 4.20340652427331  -0.5540302
 2013-Oct-09 00:00 2456574.500000000 *m    6.60144  23.83953 -18.5882  -6.68275 4.20343514896924  -0.0493453
 2013-Oct-10 00:00 2456575.500000000 *m    6.46549  23.79306 -18.4976  -6.87662 4.20375630367669   0.4551062
 2013-Oct-11 00:00 2456576.500000000 *m    6.33037  23.74533 -18.3931  -7.06411 4.20436967856307   0.9589894
 2013-Oct-12 00:00 2456577.500000000 *m    6.19618  23.69636 -18.2753  -7.24508 4.20527478402552   1.4620192
 2013-Oct-13 00:00 2456578.500000000 *m    6.06301  23.64621 -18.1443  -7.41946 4.20647098068096   1.9639636
 2013-Oct-14 00:00 2456579.500000000 *m    5.93096  23.59491 -18.0004  -7.58718 4.20795751009335   2.4646427
 2013-Oct-15 00:00 2456580.500000000 *m    5.80011  23.54252 -17.8441  -7.74819 4.20973352374225   2.9639242
 2013-Oct-16 00:00 2456581.500000000 *m    5.67057  23.48908 -17.6756  -7.90245 4.21179810808326   3.4617143
 2013-Oct-17 00:00 2456582.500000000 *m    5.54241  23.43464 -17.4951  -8.04991 4.21415030366569   3.9579461
 2013-Oct-18 00:00 2456583.500000000 *     5.41573  23.37923 -17.3028  -8.19054 4.21678911652057   4.4525647
 2013-Oct-19 00:00 2456584.500000000 *     5.29061  23.32292 -17.0988  -8.32425 4.21971352080876   4.9455123
 2013-Oct-20 00:00 2456585.500000000 *     5.16713  23.26574 -16.8833  -8.45099 4.22292245307267   5.4367145
 2013-Oct-21 00:00 2456586.500000000 *     5.04537  23.20774 -16.6564  -8.57067 4.22641479995006   5.9260716
 2013-Oct-22 00:00 2456587.500000000 *     4.92542  23.14897 -16.4181  -8.68318 4.23018938226194   6.4134549
 2013-Oct-23 00:00 2456588.500000000 *     4.80735  23.08948 -16.1685  -8.78842 4.23424493856529   6.8987082
 2013-Oct-24 00:00 2456589.500000000 *     4.69125  23.02932 -15.9078  -8.88631 4.23858011060612   7.3816527
 2013-Oct-25 00:00 2456590.500000000 *     4.57720  22.96854 -15.6360  -8.97674 4.24319343199718   7.8620929
 2013-Oct-26 00:00 2456591.500000000 *     4.46527  22.90719 -15.3534  -9.05962 4.24808332031463   8.3398222
 2013-Oct-27 00:00 2456592.500000000 *     4.35554  22.84531 -15.0600  -9.13489 4.25324807193073   8.8146267
 2013-Oct-28 00:00 2456593.500000000 *     4.24808  22.78297 -14.7561  -9.20246 4.25868585833981   9.2862863
 2013-Oct-29 00:00 2456594.500000000 *     4.14297  22.72021 -14.4419  -9.26228 4.26439472244363   9.7545738
 2013-Oct-30 00:00 2456595.500000000 *     4.04027  22.65709 -14.1174  -9.31428 4.27037257318705  10.2192500
 2013-Oct-31 00:00 2456596.500000000 *     3.94007  22.59366 -13.7830  -9.35840 4.27661717710646  10.6800578
 2013-Nov-01 00:00 2456597.500000000 *     3.84242  22.52996 -13.4388  -9.39459 4.28312614592658  11.1367152
 2013-Nov-02 00:00 2456598.500000000 *     3.74740  22.46607 -13.0850  -9.42279 4.28989692052057  11.5889098
